ONEWEB-0545             
1 54647U 22166F   26167.28172553  .00000030  00000+0  41044-4 0  9997
2 54647  87.9255 244.1619 0002127  84.7565 275.3812 13.21828648171389
ONEWEB-0580             
1 54648U 22166G   26167.25649486  .00000126  00000+0  27363-3 0  9992
2 54648  87.9255 244.1668 0002253  89.1247 271.0145 13.21828079171425
ONEWEB-0582             
1 54649U 22166H   26167.22286823  .00000116  00000+0  24888-3 0  9990
2 54649  87.9255 244.1659 0002169  87.1800 272.9582 13.21826992171398
ONEWEB-0583             
1 54650U 22166J   26167.23463295  .00000087  00000+0  17919-3 0  9997
2 54650  87.9253 244.1869 0002060  95.6746 264.4623 13.21827894171400
ONEWEB-0584             
1 54651U 22166K   26167.25482122  .00000071  00000+0  13973-3 0  9999
2 54651  87.9253 244.1685 0002119  96.2291 263.9085 13.21825792171393
ONEWEB-0585             
1 54652U 22166L   26167.27838062  .00000021  00000+0  20189-4 0  9993
2 54652  87.9256 244.1510 0001982 103.1521 256.9834 13.21826746171401
ONEWEB-0586             
1 54653U 22166M   26167.21612672  .00000064  00000+0  12371-3 0  9995
2 54653  87.9254 244.1886 0001969  93.6141 266.5218 13.21824119171395
ONEWEB-0587             
1 54654U 22166N   26167.22621881  .00000132  00000+0  28814-3 0  9994
2 54654  87.9265 244.1601 0002024 108.9757 251.1596 13.21824703171555
ONEWEB-0589             
1 54655U 22166P   26167.21276345  .00000076  00000+0  15195-3 0  9990
2 54655  87.9252 244.1751 0002413  78.9020 281.2386 13.21824524171416
ONEWEB-0590             
1 54656U 22166Q   26167.23786670  .00000113  00000+0  24240-3 0  9993
2 54656  87.9263 244.1603 0002512 100.5878 259.5539 13.21827370171407
ONEWEB-0591             
1 54657U 22166R   26167.24978753  .00000117  00000+0  25145-3 0  9999
2 54657  87.9253 244.1728 0002100  98.7126 261.4246 13.21826710171439
ONEWEB-0592             
1 54658U 22166S   26167.25313742 -.00000394  00000+0 -98450-3 0  9990
2 54658  87.9263 244.1502 0002146 100.5453 259.5923 13.21830362171311
ONEWEB-0593             
1 54659U 22166T   26167.19930088  .00000034  00000+0  49979-4 0  9994
2 54659  87.9256 244.1725 0001927  94.9208 265.2147 13.21824506171417
ONEWEB-0594             
1 54660U 22166U   26167.29520140 -.00000053  00000+0 -15902-3 0  9992
2 54660  87.9253 244.1697 0001883 102.7650 257.3695 13.21827132171445
ONEWEB-0595             
1 54661U 22166V   26167.27163805  .00000039  00000+0  63143-4 0  9995
2 54661  87.9262 244.1550 0002089 105.3563 254.7802 13.21827503171415
ONEWEB-0596             
1 54662U 22166W   26167.24641792  .00000068  00000+0  13262-3 0  9997
2 54662  87.9257 244.1717 0002077 101.9472 258.1895 13.21827079171411
