[{"OBJECT_NAME":"ONEWEB-0545","OBJECT_ID":"2022-166F","EPOCH":"2026-06-16T06:45:41.085792","MEAN_MOTION":13.21828648,"ECCENTRICITY":0.0002127,"INCLINATION":87.9255,"RA_OF_ASC_NODE":244.1619,"ARG_OF_PERICENTER":84.7565,"MEAN_ANOMALY":275.3812,"EPHEMERIS_TYPE":0,"CLASSIFICATION_TYPE":"U","NORAD_CAT_ID":54647,"ELEMENT_SET_NO":999,"REV_AT_EPOCH":17138,"BSTAR":4.1044e-05,"MEAN_MOTION_DOT":3e-07,"MEAN_MOTION_DDOT":0.0},{"OBJECT_NAME":"ONEWEB-0580","OBJECT_ID":"2022-166G","EPOCH":"2026-06-16T06:09:21.155904","MEAN_MOTION":13.21828079,"ECCENTRICITY":0.0002253,"INCLINATION":87.9255,"RA_OF_ASC_NODE":244.1668,"ARG_OF_PERICENTER":89.1247,"MEAN_ANOMALY":271.0145,"EPHEMERIS_TYPE":0,"CLASSIFICATION_TYPE":"U","NORAD_CAT_ID":54648,"ELEMENT_SET_NO":999,"REV_AT_EPOCH":17142,"BSTAR":0.00027362999999999997,"MEAN_MOTION_DOT":1.26e-06,"MEAN_MOTION_DDOT":0.0},{"OBJECT_NAME":"ONEWEB-0582","OBJECT_ID":"2022-166H","EPOCH":"2026-06-16T05:20:55.815072","MEAN_MOTION":13.21826992,"ECCENTRICITY":0.0002169,"INCLINATION":87.9255,"RA_OF_ASC_NODE":244.1659,"ARG_OF_PERICENTER":87.18,"MEAN_ANOMALY":272.9582,"EPHEMERIS_TYPE":0,"CLASSIFICATION_TYPE":"U","NORAD_CAT_ID":54649,"ELEMENT_SET_NO":999,"REV_AT_EPOCH":17139,"BSTAR":0.00024888,"MEAN_MOTION_DOT":1.16e-06,"MEAN_MOTION_DDOT":0.0},{"OBJECT_NAME":"ONEWEB-0583","OBJECT_ID":"2022-166J","EPOCH":"2026-06-16T05:37:52.286880","MEAN_MOTION":13.21827894,"ECCENTRICITY":0.000206,"INCLINATION":87.9253,"RA_OF_ASC_NODE":244.1869,"ARG_OF_PERICENTER":95.6746,"MEAN_ANOMALY":264.4623,"EPHEMERIS_TYPE":0,"CLASSIFICATION_TYPE":"U","NORAD_CAT_ID":54650,"ELEMENT_SET_NO":999,"REV_AT_EPOCH":17140,"BSTAR":0.00017919,"MEAN_MOTION_DOT":8.7e-07,"MEAN_MOTION_DDOT":0.0},{"OBJECT_NAME":"ONEWEB-0584","OBJECT_ID":"2022-166K","EPOCH":"2026-06-16T06:06:56.553408","MEAN_MOTION":13.21825792,"ECCENTRICITY":0.0002119,"INCLINATION":87.9253,"RA_OF_ASC_NODE":244.1685,"ARG_OF_PERICENTER":96.2291,"MEAN_ANOMALY":263.9085,"EPHEMERIS_TYPE":0,"CLASSIFICATION_TYPE":"U","NORAD_CAT_ID":54651,"ELEMENT_SET_NO":999,"REV_AT_EPOCH":17139,"BSTAR":0.00013973,"MEAN_MOTION_DOT":7.1e-07,"MEAN_MOTION_DDOT":0.0},{"OBJECT_NAME":"ONEWEB-0585","OBJECT_ID":"2022-166L","EPOCH":"2026-06-16T06:40:52.085568","MEAN_MOTION":13.21826746,"ECCENTRICITY":0.0001982,"INCLINATION":87.9256,"RA_OF_ASC_NODE":244.151,"ARG_OF_PERICENTER":103.1521,"MEAN_ANOMALY":256.9834,"EPHEMERIS_TYPE":0,"CLASSIFICATION_TYPE":"U","NORAD_CAT_ID":54652,"ELEMENT_SET_NO":999,"REV_AT_EPOCH":17140,"BSTAR":2.0189e-05,"MEAN_MOTION_DOT":2.1e-07,"MEAN_MOTION_DDOT":0.0},{"OBJECT_NAME":"ONEWEB-0586","OBJECT_ID":"2022-166M","EPOCH":"2026-06-16T05:11:13.348608","MEAN_MOTION":13.21824119,"ECCENTRICITY":0.0001969,"INCLINATION":87.9254,"RA_OF_ASC_NODE":244.1886,"ARG_OF_PERICENTER":93.6141,"MEAN_ANOMALY":266.5218,"EPHEMERIS_TYPE":0,"CLASSIFICATION_TYPE":"U","NORAD_CAT_ID":54653,"ELEMENT_SET_NO":999,"REV_AT_EPOCH":17139,"BSTAR":0.00012371,"MEAN_MOTION_DOT":6.4e-07,"MEAN_MOTION_DDOT":0.0},{"OBJECT_NAME":"ONEWEB-0587","OBJECT_ID":"2022-166N","EPOCH":"2026-06-16T05:25:45.305184","MEAN_MOTION":13.21824703,"ECCENTRICITY":0.0002024,"INCLINATION":87.9265,"RA_OF_ASC_NODE":244.1601,"ARG_OF_PERICENTER":108.9757,"MEAN_ANOMALY":251.1596,"EPHEMERIS_TYPE":0,"CLASSIFICATION_TYPE":"U","NORAD_CAT_ID":54654,"ELEMENT_SET_NO":999,"REV_AT_EPOCH":17155,"BSTAR":0.00028814,"MEAN_MOTION_DOT":1.32e-06,"MEAN_MOTION_DDOT":0.0},{"OBJECT_NAME":"ONEWEB-0589","OBJECT_ID":"2022-166P","EPOCH":"2026-06-16T05:06:22.762080","MEAN_MOTION":13.21824524,"ECCENTRICITY":0.0002413,"INCLINATION":87.9252,"RA_OF_ASC_NODE":244.1751,"ARG_OF_PERICENTER":78.902,"MEAN_ANOMALY":281.2386,"EPHEMERIS_TYPE":0,"CLASSIFICATION_TYPE":"U","NORAD_CAT_ID":54655,"ELEMENT_SET_NO":999,"REV_AT_EPOCH":17141,"BSTAR":0.00015195,"MEAN_MOTION_DOT":7.6e-07,"MEAN_MOTION_DDOT":0.0},{"OBJECT_NAME":"ONEWEB-0590","OBJECT_ID":"2022-166Q","EPOCH":"2026-06-16T05:42:31.682880","MEAN_MOTION":13.2182737,"ECCENTRICITY":0.0002512,"INCLINATION":87.9263,"RA_OF_ASC_NODE":244.1603,"ARG_OF_PERICENTER":100.5878,"MEAN_ANOMALY":259.5539,"EPHEMERIS_TYPE":0,"CLASSIFICATION_TYPE":"U","NORAD_CAT_ID":54656,"ELEMENT_SET_NO":999,"REV_AT_EPOCH":17140,"BSTAR":0.0002424,"MEAN_MOTION_DOT":1.13e-06,"MEAN_MOTION_DDOT":0.0},{"OBJECT_NAME":"ONEWEB-0591","OBJECT_ID":"2022-166R","EPOCH":"2026-06-16T05:59:41.642592","MEAN_MOTION":13.2182671,"ECCENTRICITY":0.00021,"INCLINATION":87.9253,"RA_OF_ASC_NODE":244.1728,"ARG_OF_PERICENTER":98.7126,"MEAN_ANOMALY":261.4246,"EPHEMERIS_TYPE":0,"CLASSIFICATION_TYPE":"U","NORAD_CAT_ID":54657,"ELEMENT_SET_NO":999,"REV_AT_EPOCH":17143,"BSTAR":0.00025145,"MEAN_MOTION_DOT":1.17e-06,"MEAN_MOTION_DDOT":0.0},{"OBJECT_NAME":"ONEWEB-0592","OBJECT_ID":"2022-166S","EPOCH":"2026-06-16T06:04:31.073088","MEAN_MOTION":13.21830362,"ECCENTRICITY":0.0002146,"INCLINATION":87.9263,"RA_OF_ASC_NODE":244.1502,"ARG_OF_PERICENTER":100.5453,"MEAN_ANOMALY":259.5923,"EPHEMERIS_TYPE":0,"CLASSIFICATION_TYPE":"U","NORAD_CAT_ID":54658,"ELEMENT_SET_NO":999,"REV_AT_EPOCH":17131,"BSTAR":-0.0009845000000000001,"MEAN_MOTION_DOT":-3.94e-06,"MEAN_MOTION_DDOT":0.0},{"OBJECT_NAME":"ONEWEB-0593","OBJECT_ID":"2022-166T","EPOCH":"2026-06-16T04:46:59.596032","MEAN_MOTION":13.21824506,"ECCENTRICITY":0.0001927,"INCLINATION":87.9256,"RA_OF_ASC_NODE":244.1725,"ARG_OF_PERICENTER":94.9208,"MEAN_ANOMALY":265.2147,"EPHEMERIS_TYPE":0,"CLASSIFICATION_TYPE":"U","NORAD_CAT_ID":54659,"ELEMENT_SET_NO":999,"REV_AT_EPOCH":17141,"BSTAR":4.9979000000000004e-05,"MEAN_MOTION_DOT":3.4e-07,"MEAN_MOTION_DDOT":0.0},{"OBJECT_NAME":"ONEWEB-0594","OBJECT_ID":"2022-166U","EPOCH":"2026-06-16T07:05:05.400960","MEAN_MOTION":13.21827132,"ECCENTRICITY":0.0001883,"INCLINATION":87.9253,"RA_OF_ASC_NODE":244.1697,"ARG_OF_PERICENTER":102.765,"MEAN_ANOMALY":257.3695,"EPHEMERIS_TYPE":0,"CLASSIFICATION_TYPE":"U","NORAD_CAT_ID":54660,"ELEMENT_SET_NO":999,"REV_AT_EPOCH":17144,"BSTAR":-0.00015902,"MEAN_MOTION_DOT":-5.3e-07,"MEAN_MOTION_DDOT":0.0},{"OBJECT_NAME":"ONEWEB-0595","OBJECT_ID":"2022-166V","EPOCH":"2026-06-16T06:31:09.527520","MEAN_MOTION":13.21827503,"ECCENTRICITY":0.0002089,"INCLINATION":87.9262,"RA_OF_ASC_NODE":244.155,"ARG_OF_PERICENTER":105.3563,"MEAN_ANOMALY":254.7802,"EPHEMERIS_TYPE":0,"CLASSIFICATION_TYPE":"U","NORAD_CAT_ID":54661,"ELEMENT_SET_NO":999,"REV_AT_EPOCH":17141,"BSTAR":6.3143e-05,"MEAN_MOTION_DOT":3.9e-07,"MEAN_MOTION_DDOT":0.0},{"OBJECT_NAME":"ONEWEB-0596","OBJECT_ID":"2022-166W","EPOCH":"2026-06-16T05:54:50.508288","MEAN_MOTION":13.21827079,"ECCENTRICITY":0.0002077,"INCLINATION":87.9257,"RA_OF_ASC_NODE":244.1717,"ARG_OF_PERICENTER":101.9472,"MEAN_ANOMALY":258.1895,"EPHEMERIS_TYPE":0,"CLASSIFICATION_TYPE":"U","NORAD_CAT_ID":54662,"ELEMENT_SET_NO":999,"REV_AT_EPOCH":17141,"BSTAR":0.00013262,"MEAN_MOTION_DOT":6.8e-07,"MEAN_MOTION_DDOT":0.0}]